{
  "type": "FeatureCollection",
  "features": [
    {
      "type": "Feature",
      "properties": {
        "norad_id": 36036,
        "name": "SMOS",
        "group": "resource",
        "lat": 7.780012648022438,
        "lon": 164.45623757287203,
        "alt_km": 761.0510020945994,
        "timestamp": "2025-12-06T11:28:10.685957+00:00",
        "meta_object_name": "SMOS",
        "meta_object_id": "2009-059A",
        "meta_epoch": "2025-12-05T18:45:13.642560",
        "meta_mean_motion": 14.39731513,
        "meta_eccentricity": 0.00010871,
        "meta_inclination": 98.4383,
        "meta_ra_of_asc_node": 164.9325,
        "meta_arg_of_pericenter": 84.2281,
        "meta_mean_anomaly": 275.9031,
        "meta_ephemeris_type": 0,
        "meta_classification_type": "U",
        "meta_norad_cat_id": 36036,
        "meta_element_set_no": 999,
        "meta_rev_at_epoch": 84562,
        "meta_bstar": 0.00025059512,
        "meta_mean_motion_dot": 7.41e-06,
        "meta_mean_motion_ddot": 0,
        "tle_line1": "1 36036U 09059A   25339.78140790  .00000741  00000+0  25060-3 0  9996",
        "tle_line2": "2 36036  98.4383 164.9325 0001087  84.2281 275.9031 14.39731513845625"
      },
      "geometry": {
        "type": "Point",
        "coordinates": [
          164.45623757287203,
          7.780012648022438
        ]
      }
    },
    {
      "type": "Feature",
      "properties": {
        "norad_id": 36110,
        "name": "YAOGAN-7",
        "group": "resource",
        "lat": 57.28414190065,
        "lon": -150.43863878590662,
        "alt_km": 638.1777806488617,
        "timestamp": "2025-12-06T11:28:10.685967+00:00",
        "meta_object_name": "YAOGAN-7",
        "meta_object_id": "2009-069A",
        "meta_epoch": "2025-12-05T15:42:21.819744",
        "meta_mean_motion": 14.77716154,
        "meta_eccentricity": 0.00236733,
        "meta_inclination": 98.0303,
        "meta_ra_of_asc_node": 221.4365,
        "meta_arg_of_pericenter": 305.3017,
        "meta_mean_anomaly": 54.5979,
        "meta_ephemeris_type": 0,
        "meta_classification_type": "U",
        "meta_norad_cat_id": 36110,
        "meta_element_set_no": 999,
        "meta_rev_at_epoch": 86104,
        "meta_bstar": 0.00019504417,
        "meta_mean_motion_dot": 1.351e-05,
        "meta_mean_motion_ddot": 0,
        "tle_line1": "1 36110U 09069A   25339.65441921  .00001351  00000+0  19504-3 0  9990",
        "tle_line2": "2 36110  98.0303 221.4365 0023673 305.3017  54.5979 14.77716154861040"
      },
      "geometry": {
        "type": "Point",
        "coordinates": [
          -150.43863878590662,
          57.28414190065
        ]
      }
    },
    {
      "type": "Feature",
      "properties": {
        "norad_id": 36605,
        "name": "TANDEM-X",
        "group": "resource",
        "lat": 82.39585186562364,
        "lon": -115.67092571555666,
        "alt_km": 499.5880613591462,
        "timestamp": "2025-12-06T11:28:10.685977+00:00",
        "meta_object_name": "TANDEM-X",
        "meta_object_id": "2010-030A",
        "meta_epoch": "2025-12-05T14:31:03.216576",
        "meta_mean_motion": 15.19154888,
        "meta_eccentricity": 0.0001924,
        "meta_inclination": 97.4449,
        "meta_ra_of_asc_node": 345.0902,
        "meta_arg_of_pericenter": 96.7979,
        "meta_mean_anomaly": 263.3475,
        "meta_ephemeris_type": 0,
        "meta_classification_type": "U",
        "meta_norad_cat_id": 36605,
        "meta_element_set_no": 999,
        "meta_rev_at_epoch": 85725,
        "meta_bstar": 0.00014316692,
        "meta_mean_motion_dot": 2.941e-05,
        "meta_mean_motion_ddot": 0,
        "tle_line1": "1 36605U 10030A   25339.60489834  .00002941  00000+0  14317-3 0  9992",
        "tle_line2": "2 36605  97.4449 345.0902 0001924  96.7979 263.3475 15.19154888857252"
      },
      "geometry": {
        "type": "Point",
        "coordinates": [
          -115.67092571555666,
          82.39585186562364
        ]
      }
    },
    {
      "type": "Feature",
      "properties": {
        "norad_id": 36795,
        "name": "CARTOSAT-2B",
        "group": "resource",
        "lat": -37.738168389778366,
        "lon": 35.79047057240291,
        "alt_km": 645.8956672550994,
        "timestamp": "2025-12-06T11:28:10.685988+00:00",
        "meta_object_name": "CARTOSAT-2B",
        "meta_object_id": "2010-035A",
        "meta_epoch": "2025-12-05T22:39:01.270080",
        "meta_mean_motion": 14.78772864,
        "meta_eccentricity": 0.00129056,
        "meta_inclination": 97.7861,
        "meta_ra_of_asc_node": 29.1947,
        "meta_arg_of_pericenter": 97.6006,
        "meta_mean_anomaly": 262.6672,
        "meta_ephemeris_type": 0,
        "meta_classification_type": "U",
        "meta_norad_cat_id": 36795,
        "meta_element_set_no": 999,
        "meta_rev_at_epoch": 83129,
        "meta_bstar": 0.00020008394,
        "meta_mean_motion_dot": 1.422e-05,
        "meta_mean_motion_ddot": 0,
        "tle_line1": "1 36795U 10035A   25339.94376470  .00001422  00000+0  20008-3 0  9992",
        "tle_line2": "2 36795  97.7861  29.1947 0012905  97.6006 262.6672 14.78772864831295"
      },
      "geometry": {
        "type": "Point",
        "coordinates": [
          35.79047057240291,
          -37.738168389778366
        ]
      }
    },
    {
      "type": "Feature",
      "properties": {
        "norad_id": 36834,
        "name": "YAOGAN-10",
        "group": "resource",
        "lat": -82.00028029031736,
        "lon": 82.16628867589958,
        "alt_km": 623.3344457430721,
        "timestamp": "2025-12-06T11:28:10.685999+00:00",
        "meta_object_name": "YAOGAN-10",
        "meta_object_id": "2010-038A",
        "meta_epoch": "2025-12-05T23:13:10.973568",
        "meta_mean_motion": 14.84568009,
        "meta_eccentricity": 0.00015127,
        "meta_inclination": 97.9141,
        "meta_ra_of_asc_node": 359.839,
        "meta_arg_of_pericenter": 84.5773,
        "meta_mean_anomaly": 340.3506,
        "meta_ephemeris_type": 0,
        "meta_classification_type": "U",
        "meta_norad_cat_id": 36834,
        "meta_element_set_no": 999,
        "meta_rev_at_epoch": 82853,
        "meta_bstar": 0.00040829676,
        "meta_mean_motion_dot": 3.393e-05,
        "meta_mean_motion_ddot": 0,
        "tle_line1": "1 36834U 10038A   25339.96748812  .00003393  00000+0  40830-3 0  9998",
        "tle_line2": "2 36834  97.9141 359.8390 0001512  84.5773 340.3506 14.84568009828539"
      },
      "geometry": {
        "type": "Point",
        "coordinates": [
          82.16628867589958,
          -82.00028029031736
        ]
      }
    },
    {
      "type": "Feature",
      "properties": {
        "norad_id": 37216,
        "name": "COSMO-SKYMED 4",
        "group": "resource",
        "lat": -67.63390983840102,
        "lon": -37.77768628585036,
        "alt_km": 630.7241626102086,
        "timestamp": "2025-12-06T11:28:10.686009+00:00",
        "meta_object_name": "COSMO-SKYMED 4",
        "meta_object_id": "2010-060A",
        "meta_epoch": "2025-12-05T23:00:28.903968",
        "meta_mean_motion": 14.82155476,
        "meta_eccentricity": 0.00013716,
        "meta_inclination": 97.8815,
        "meta_ra_of_asc_node": 161.3842,
        "meta_arg_of_pericenter": 82.8726,
        "meta_mean_anomaly": 277.2643,
        "meta_ephemeris_type": 0,
        "meta_classification_type": "U",
        "meta_norad_cat_id": 37216,
        "meta_element_set_no": 999,
        "meta_rev_at_epoch": 81594,
        "meta_bstar": 0.00014049378,
        "meta_mean_motion_dot": 1.066e-05,
        "meta_mean_motion_ddot": 0,
        "tle_line1": "1 37216U 10060A   25339.95866787  .00001066  00000+0  14049-3 0  9997",
        "tle_line2": "2 37216  97.8815 161.3842 0001371  82.8726 277.2643 14.82155476815940"
      },
      "geometry": {
        "type": "Point",
        "coordinates": [
          -37.77768628585036,
          -67.63390983840102
        ]
      }
    },
    {
      "type": "Feature",
      "properties": {
        "norad_id": 37387,
        "name": "RESOURCESAT-2",
        "group": "resource",
        "lat": 42.33235568664428,
        "lon": -127.84074646562861,
        "alt_km": 815.485565636216,
        "timestamp": "2025-12-06T11:28:10.686019+00:00",
        "meta_object_name": "RESOURCESAT-2",
        "meta_object_id": "2011-015A",
        "meta_epoch": "2025-12-05T23:00:13.703616",
        "meta_mean_motion": 14.21593067,
        "meta_eccentricity": 0.00066986,
        "meta_inclination": 98.7886,
        "meta_ra_of_asc_node": 43.5406,
        "meta_arg_of_pericenter": 60.0807,
        "meta_mean_anomaly": 300.1035,
        "meta_ephemeris_type": 0,
        "meta_classification_type": "U",
        "meta_norad_cat_id": 37387,
        "meta_element_set_no": 999,
        "meta_rev_at_epoch": 75872,
        "meta_bstar": 0.00016819785,
        "meta_mean_motion_dot": 3.24e-06,
        "meta_mean_motion_ddot": 0,
        "tle_line1": "1 37387U 11015A   25339.95849194  .00000324  00000+0  16820-3 0  9995",
        "tle_line2": "2 37387  98.7886  43.5406 0006698  60.0807 300.1035 14.21593067758727"
      },
      "geometry": {
        "type": "Point",
        "coordinates": [
          -127.84074646562861,
          42.33235568664428
        ]
      }
    }
  ]
}